{
    "links": {
        "self": "http://www.neowsapp.com/rest/v1/neo/3883093?api_key=iIulBulltgU6a56xZRHN4H3l9WmuAYTsLGpBGhQ2"
    },
    "id": "3883093",
    "neo_reference_id": "3883093",
    "name": "(2019 UR7)",
    "designation": "2019 UR7",
    "nasa_jpl_url": "http://ssd.jpl.nasa.gov/sbdb.cgi?sstr=3883093",
    "absolute_magnitude_h": 23.7,
    "estimated_diameter": {
        "kilometers": {
            "estimated_diameter_min": 0.0483676488,
            "estimated_diameter_max": 0.1081533507
        },
        "meters": {
            "estimated_diameter_min": 48.3676488219,
            "estimated_diameter_max": 108.1533506775
        },
        "miles": {
            "estimated_diameter_min": 0.0300542543,
            "estimated_diameter_max": 0.0672033557
        },
        "feet": {
            "estimated_diameter_min": 158.6865169607,
            "estimated_diameter_max": 354.8338390368
        }
    },
    "is_potentially_hazardous_asteroid": false,
    "close_approach_data": [
        {
            "close_approach_date": "2019-09-28",
            "close_approach_date_full": "2019-Sep-28 17:33",
            "epoch_date_close_approach": 1569691980000,
            "relative_velocity": {
                "kilometers_per_second": "7.3526246069",
                "kilometers_per_hour": "26469.4485849453",
                "miles_per_hour": "16447.08598324"
            },
            "miss_distance": {
                "astronomical": "0.1422148494",
                "lunar": "55.3215764166",
                "kilometers": "21275038.552610778",
                "miles": "13219695.9511456164"
            },
            "orbiting_body": "Earth"
        }
    ],
    "orbital_data": {
        "orbit_id": "2",
        "orbit_determination_date": "2019-11-25 04:55:06",
        "first_observation_date": "2019-10-24",
        "last_observation_date": "2019-11-19",
        "data_arc_in_days": 26,
        "observations_used": 16,
        "orbit_uncertainty": "7",
        "minimum_orbit_intersection": ".0991455",
        "jupiter_tisserand_invariant": "3.289",
        "epoch_osculation": "2459000.5",
        "eccentricity": ".5472260354036078",
        "semi_major_axis": "2.417678975036513",
        "inclination": "4.872284353892827",
        "ascending_node_longitude": "143.834934914764",
        "orbital_period": "1373.08169502538",
        "perihelion_distance": "1.094662094648624",
        "perihelion_argument": "212.1524631749059",
        "aphelion_distance": "3.740695855424402",
        "perihelion_time": "2458751.469581404473",
        "mean_anomaly": "65.29178199606874",
        "mean_motion": ".2621839627636618",
        "equinox": "J2000",
        "orbit_class": {
            "orbit_class_type": "AMO",
            "orbit_class_description": "Near-Earth asteroid orbits similar to that of 1221 Amor",
            "orbit_class_range": "1.017 AU < q (perihelion) < 1.3 AU"
        }
    },
    "is_sentry_object": false
}